OPS 6582 (TRANSIT 5B-5) 
1 00965U 64083D   22296.66093580  .00000070  00000+0  84996-4 0  9995
2 00965  90.0338 195.8422 0039822 212.1044 207.1601 13.56791028863471
OSCAR 7 (AO-7)          
1 07530U 74089B   22296.44037358 -.00000025  00000+0  13253-3 0  9992
2 07530 101.9215 276.7827 0012214 155.3321 359.5774 12.53658050193508
UOSAT 2 (UO-11)         
1 14781U 84021B   22296.71731876  .00001052  00000+0  13277-3 0  9997
2 14781  97.6314 278.4070 0006742 258.3753 101.6705 14.83905394 80063
NOAA 9                  
1 15427U 84123A   22296.47848589  .00000121  00000+0  84210-4 0  9993
2 15427  99.0624 270.9676 0015096 159.0234 310.8696 14.16236058954730
LUSAT (LO-19)           
1 20442U 90005G   22296.42926728  .00000128  00000+0  63216-4 0  9999
2 20442  98.8116 263.3471 0012248 148.5911 211.6006 14.33101529711430
ITAMSAT (IO-26)         
1 22826U 93061D   22296.32458025  .00000110  00000+0  59829-4 0  9997
2 22826  98.8703 329.8698 0009456  31.7158 328.4591 14.30551879516693
RADIO ROSTO (RS-15)     
1 23439U 94085A   22296.55411167 -.00000039  00000+0  10000-3 0  9994
2 23439  64.8185 298.4252 0167963 250.7382 107.5306 11.27573147145938
JAS-2 (FO-29)           
1 24278U 96046B   22296.42746903 -.00000003  00000+0  35423-4 0  9998
2 24278  98.5150 302.4996 0349548 311.3485  45.8066 13.53122720292912
NOAA 15                 
1 25338U 98030A   22296.80915979  .00000148  00000+0  80034-4 0  9991
2 25338  98.6342 324.6085 0009297 284.7799  75.2350 14.26186162271566
TECHSAT 1B (GO-32)      
1 25397U 98043D   22296.47126260  .00000059  00000+0  45624-4 0  9997
2 25397  98.8332 247.3588 0002360  93.0118 267.1331 14.23780887261641
ISS (ZARYA)             
1 25544U 98067A   22296.83040115  .00009674  00000+0  17934-3 0  9995
2 25544  51.6435  59.2643 0005247   8.7415 126.1004 15.49663194365138
ORSTED                  
1 25635U 99008B   22296.49071754  .00000455  00000+0  11430-3 0  9990
2 25635  96.4453 131.3572 0139214 132.0461 229.2684 14.48572435248812
PHASE 3D (AO-40)        
1 26609U 00072B   22295.96849499  .00000073  00000+0  00000+0 0  9998
2 26609   5.5340 238.6276 7973447  71.5700 353.8315  1.25588801100756
PCSAT (NO-44)           
1 26931U 01043C   22296.65848954  .00000126  00000+0  79579-4 0  9998
2 26931  67.0502  87.4679 0005366 261.0170  99.0324 14.30750224 99903
SAUDISAT 1C (SO-50)     
1 27607U 02058C   22296.35823640  .00001195  00000+0  18298-3 0  9995
2 27607  64.5538 270.4378 0081615 270.1207  89.0544 14.76346140 67252
CUTE-1 (CO-55)          
1 27844U 03031E   22296.58483614  .00000290  00000+0  14931-3 0  9993
2 27844  98.6811 302.3538 0010979  91.0673 269.1763 14.22521131  2127
CUBESAT XI-IV (CO-57)   
1 27848U 03031J   22296.44734267  .00000238  00000+0  12711-3 0  9991
2 27848  98.6853 302.7094 0010835 104.5193 255.7187 14.22068496  1902
MOZHAYETS 4 (RS-22)     
1 27939U 03042A   22296.65704123  .00000970  00000+0  17958-3 0  9996
2 27939  98.2104  77.4938 0013169 158.8729 201.3032 14.67556253 19841
INMARSAT 4-F1           
1 28628U 05009A   22296.50692153 -.00000248  00000+0  00000+0 0  9995
2 28628   3.7075  36.3058 0002804 181.4707 140.1418  1.00272232 64308
NOAA 18                 
1 28654U 05018A   22296.74894530  .00000172  00000+0  11649-3 0  9993
2 28654  98.9376   7.0121 0013639 332.3054  27.7390 14.12794622898182
CUBESAT XI-V            
1 28895U 05043F   22296.35705629  .00001178  00000+0  23049-3 0  9999
2 28895  98.1245  65.9067 0017728  98.4468 261.8745 14.64589457906135
METOP-A                 
1 29499U 06044A   22296.70066087  .00001159  00000+0  16188-3 0  9994
2 29499  98.4371 345.3152 0196458 326.1851 139.1964 14.67502744832331
CARTOSAT-2 (IRS-P7)     
1 29710U 07001B   22296.31258049  .00020622  00000+0  46654-3 0  9999
2 29710  97.8748  49.5948 0138941 328.1292  31.1596 15.33554712855803
FALCONSAT-3             
1 30776U 07006E   22296.83784307  .00101824  00000+0  93290-3 0  9998
2 30776  35.4263 132.9957 0004436 321.6144  38.4276 15.66470332869620
CAPE-1                  
1 31130U 07012P   22296.50429742  .00001022  00000+0  22337-3 0  9996
2 31130  98.2797 236.2441 0093359 256.4894 102.5889 14.57362452823736
CARTOSAT-2A             
1 32783U 08021A   22296.65359917  .00000367  00000+0  57104-4 0  9996
2 32783  97.9519 355.4917 0013943 112.8842 247.3865 14.78692529781964
CUTE-1.7+APD II (CO-65) 
1 32785U 08021C   22296.44688053  .00002515  00000+0  26545-3 0  9992
2 32785  97.6737 263.3787 0012997 161.9374 198.2309 14.90084110785618
COMPASS-1               
1 32787U 08021E   22296.45320302  .00004443  00000+0  39256-3 0  9990
2 32787  97.5763 274.2209 0013556  77.8962 282.3778 14.96775009787198
AAUSAT-II               
1 32788U 08021F   22296.69312398  .00006340  00000+0  53226-3 0  9994
2 32788  97.5458 277.6329 0012758  60.0877 300.1611 14.98611878787732
DELFI-C3 (DO-64)        
1 32789U 08021G   22296.01221036  .00020596  00000+0  10428-2 0  9994
2 32789  97.3313 317.8885 0008020 230.4649 129.5877 15.16997646791241
SEEDS II (CO-66)        
1 32791U 08021J   22296.38878827  .00003999  00000+0  38546-3 0  9993
2 32791  97.6264 268.6874 0014153 119.6517 240.6114 14.93391581786286
YUBILEINY (RS-30)       
1 32953U 08025A   22296.82873339  .00000024  00000+0  10000-3 0  9990
2 32953  82.4989 104.1052 0019297 341.8901  18.1501 12.43114196654284
FENGYUN 3A              
1 32958U 08026A   22296.75320979  .00000095  00000+0  65669-4 0  9995
2 32958  98.5203 254.2371 0009154  19.3404 340.8119 14.18752510746524
PRISM (HITOMI)          
1 33493U 09002B   22296.46244853  .00006487  00000+0  51079-3 0  9999
2 33493  98.2488 290.5000 0016317 113.3020 246.9921 15.01078359748187
STARS (KUKAI)           
1 33498U 09002G   22296.49139931  .00001742  00000+0  23540-3 0  9998
2 33498  98.1517 190.5715 0010037 191.8120 168.2858 14.80354355740794
KKS-1 (KISEKI)          
1 33499U 09002H   22296.49556526  .00000925  00000+0  14135-3 0  9994
2 33499  98.1972 180.5419 0007584 266.0957  93.9385 14.76209616739135
NOAA 19                 
1 33591U 09005A   22296.83569379  .00000181  00000+0  12246-3 0  9993
2 33591  99.1355 333.5978 0013890 183.7361 176.3709 14.12626625706576
SWISSCUBE               
1 35932U 09051B   22296.59703417  .00000741  00000+0  17552-3 0  9998
2 35932  98.5502 156.0207 0008062  21.9312 338.2229 14.57028358694795
BEESAT-1                
1 35933U 09051C   22296.62013119  .00000648  00000+0  15496-3 0  9997
2 35933  98.5437 157.5810 0006476  35.5094 324.6533 14.57024330694911
ITUPSAT1                
1 35935U 09051E   22296.57894392  .00000597  00000+0  14626-3 0  9990
2 35935  98.5538 157.5601 0008824  36.6809 323.4990 14.56121494694550
XIWANG-1 (HOPE-1)       
1 36122U 09072B   22296.48884546 -.00000008  00000+0  92612-4 0  9992
2 36122 100.2015 263.2319 0008053  49.8218 310.3600 13.16373272617652
CARTOSAT-2B             
1 36795U 10035A   22296.75917578  .00000695  00000+0  10183-3 0  9994
2 36795  97.9462 355.6549 0013423 184.2890 175.8196 14.78662989663025
TISAT 1                 
1 36799U 10035E   22296.64901473  .00002688  00000+0  26077-3 0  9996
2 36799  98.1657 152.0991 0012654  38.8965 321.3162 14.93517028667092
FENGYUN 3B              
1 37214U 10059A   22296.26297517  .00000038  00000+0  44312-4 0  9990
2 37214  99.0951 304.5202 0022066 357.5084   2.5974 14.14270439619026
JUGNU                   
1 37839U 11058B   22296.80413234  .00000454  00000+0  99617-4 0  9999
2 37839  19.9599 116.9411 0018884 132.0159 253.5452 14.12822083570422
SRMSAT                  
1 37841U 11058D   22296.44499123  .00000421  00000+0  86004-4 0  9993
2 37841  19.9709 201.2431 0011730 310.4157 205.8021 14.10785358569332
M-CUBED & EXP-1 PRIME   
1 37855U 11061F   22296.49485069  .00010570  00000+0  43735-3 0  9990
2 37855 101.7196 123.7346 0146137  37.9193 323.2208 15.15045104600603
HORYU-2                 
1 38340U 12025D   22296.47001608  .00001693  00000+0  24768-3 0  9993
2 38340  98.1871  16.7444 0011553 171.9259 188.2138 14.76989870551134
METOP-B                 
1 38771U 12049A   22296.75317906  .00000105  00000+0  67855-4 0  9991
2 38771  98.7148 354.6582 0001386  67.8557  94.8651 14.21485397523955
SARAL                   
1 39086U 13009A   22296.74111195  .00000090  00000+0  49881-4 0  9991
2 39086  98.5478 120.4968 0000269 145.4897 214.6304 14.32038972504844
AAUSAT 3                
1 39087U 13009B   22296.53134286  .00000623  00000+0  22764-3 0  9997
2 39087  98.3909 132.8354 0011473 242.1963 117.8059 14.36299173505967
STRAND-1                
1 39090U 13009E   22296.49801920  .00000222  00000+0  92206-4 0  9996
2 39090  98.3968 131.2673 0007945 247.8768 112.1575 14.35350336505764
BRITE-AUSTRIA           
1 39091U 13009F   22296.83345200  .00000165  00000+0  72319-4 0  9998
2 39091  98.3989 130.7824 0009332 254.4412 105.5744 14.35316840505858
UNIBRITE                
1 39092U 13009G   22296.51808472  .00000151  00000+0  67801-4 0  9994
2 39092  98.4023 130.2618 0008263 250.0100 110.0196 14.35187478505757
SOMP                    
1 39134U 13015E   22296.47028928  .00022357  00000+0  69891-3 0  9995
2 39134  64.8619   0.7002 0033488 263.5502  96.1818 15.32613464526443
BEESAT-3                
1 39135U 13015F   22296.46456573  .00018254  00000+0  68212-3 0  9993
2 39135  64.8665  40.1055 0038487 265.0416  94.6321 15.26759492525633
BEESAT-2                
1 39136U 13015G   22296.47002093  .00015518  00000+0  61089-3 0  9994
2 39136  64.8747  49.0584 0024248 293.2464  66.6113 15.25535966525428
NEE-01 PEGASO           
1 39151U 13018B   22296.73956176  .00001748  00000+0  23054-3 0  9993
2 39151  97.9987  42.0322 0016379 195.2660 164.8061 14.81278285512671
CUBEBUG-1 (CAPITAN BETO)
1 39153U 13018D   22296.74471075  .00002214  00000+0  28500-3 0  9996
2 39153  98.0228  46.9639 0016343 189.7820 170.3076 14.82038025512837
